{
  "links" : {
    "next" : "https://api.nasa.gov/neo/rest/v1/feed?start_date=2008-12-16&end_date=2008-12-16&detailed=true&api_key=t0TVs3DtDT2H8Oy2Zy8m2eVrNsAVKAexjcZXUckd",
    "prev" : "https://api.nasa.gov/neo/rest/v1/feed?start_date=2008-12-14&end_date=2008-12-14&detailed=true&api_key=t0TVs3DtDT2H8Oy2Zy8m2eVrNsAVKAexjcZXUckd",
    "self" : "https://api.nasa.gov/neo/rest/v1/feed?start_date=2008-12-15&end_date=2008-12-15&detailed=true&api_key=t0TVs3DtDT2H8Oy2Zy8m2eVrNsAVKAexjcZXUckd"
  },
  "element_count" : 6,
  "near_earth_objects" : {
    "2008-12-15" : [ {
      "links" : {
        "self" : "https://api.nasa.gov/neo/rest/v1/neo/3666685?api_key=t0TVs3DtDT2H8Oy2Zy8m2eVrNsAVKAexjcZXUckd"
      },
      "neo_reference_id" : "3666685",
      "name" : "(2014 FO38)",
      "nasa_jpl_url" : "http://ssd.jpl.nasa.gov/sbdb.cgi?sstr=3666685",
      "absolute_magnitude_h" : 26.3,
      "estimated_diameter" : {
        "kilometers" : {
          "estimated_diameter_min" : 0.0146067964,
          "estimated_diameter_max" : 0.0326617897
        },
        "meters" : {
          "estimated_diameter_min" : 14.6067964271,
          "estimated_diameter_max" : 32.6617897446
        },
        "miles" : {
          "estimated_diameter_min" : 0.0090762397,
          "estimated_diameter_max" : 0.020295089
        },
        "feet" : {
          "estimated_diameter_min" : 47.92256199,
          "estimated_diameter_max" : 107.1581062656
        }
      },
      "is_potentially_hazardous_asteroid" : false,
      "close_approach_data" : [ {
        "close_approach_date" : "2008-12-15",
        "epoch_date_close_approach" : 1229328000000,
        "relative_velocity" : {
          "kilometers_per_second" : "15.3228072481",
          "kilometers_per_hour" : "55162.106093146",
          "miles_per_hour" : "34275.5875332662"
        },
        "miss_distance" : {
          "astronomical" : "0.4799861759",
          "lunar" : "186.714630127",
          "kilometers" : "71804912",
          "miles" : "44617504"
        },
        "orbiting_body" : "Earth"
      } ],
      "orbital_data" : {
        "orbit_id" : "15",
        "orbit_determination_date" : "2017-04-06 08:41:52",
        "orbit_uncertainty" : "3",
        "minimum_orbit_intersection" : ".0126631",
        "jupiter_tisserand_invariant" : "7.721",
        "epoch_osculation" : "2458000.5",
        "eccentricity" : ".403483279012806",
        "semi_major_axis" : ".7389727669511558",
        "inclination" : "9.712833974640446",
        "ascending_node_longitude" : "10.42385125787995",
        "orbital_period" : "232.028363845172",
        "perihelion_distance" : ".4408096118405373",
        "perihelion_argument" : "14.45288475388571",
        "aphelion_distance" : "1.037135922061774",
        "perihelion_time" : "2458044.548777855017",
        "mean_anomaly" : "291.6568036553174",
        "mean_motion" : "1.551534450504599",
        "equinox" : "J2000"
      }
    }, {
      "links" : {
        "self" : "https://api.nasa.gov/neo/rest/v1/neo/3725757?api_key=t0TVs3DtDT2H8Oy2Zy8m2eVrNsAVKAexjcZXUckd"
      },
      "neo_reference_id" : "3725757",
      "name" : "(2015 PL57)",
      "nasa_jpl_url" : "http://ssd.jpl.nasa.gov/sbdb.cgi?sstr=3725757",
      "absolute_magnitude_h" : 25.7,
      "estimated_diameter" : {
        "kilometers" : {
          "estimated_diameter_min" : 0.0192555078,
          "estimated_diameter_max" : 0.0430566244
        },
        "meters" : {
          "estimated_diameter_min" : 19.2555078188,
          "estimated_diameter_max" : 43.0566244241
        },
        "miles" : {
          "estimated_diameter_min" : 0.0119648141,
          "estimated_diameter_max" : 0.0267541378
        },
        "feet" : {
          "estimated_diameter_min" : 63.1742402722,
          "estimated_diameter_max" : 141.2618956756
        }
      },
      "is_potentially_hazardous_asteroid" : false,
      "close_approach_data" : [ {
        "close_approach_date" : "2008-12-15",
        "epoch_date_close_approach" : 1229328000000,
        "relative_velocity" : {
          "kilometers_per_second" : "5.3994762576",
          "kilometers_per_hour" : "19438.1145274141",
          "miles_per_hour" : "12078.088440659"
        },
        "miss_distance" : {
          "astronomical" : "0.273897388",
          "lunar" : "106.546081543",
          "kilometers" : "40974464",
          "miles" : "25460352"
        },
        "orbiting_body" : "Earth"
      } ],
      "orbital_data" : {
        "orbit_id" : "12",
        "orbit_determination_date" : "2017-04-06 08:32:31",
        "orbit_uncertainty" : "4",
        "minimum_orbit_intersection" : ".00399468",
        "jupiter_tisserand_invariant" : "5.562",
        "epoch_osculation" : "2458000.5",
        "eccentricity" : ".1441121976283819",
        "semi_major_axis" : "1.120457118675057",
        "inclination" : "1.630523002184004",
        "ascending_node_longitude" : "112.6295092499175",
        "orbital_period" : "433.2028320476712",
        "perihelion_distance" : ".9589855809544297",
        "perihelion_argument" : "115.2515428571413",
        "aphelion_distance" : "1.281928656395684",
        "perihelion_time" : "2458023.013141249799",
        "mean_anomaly" : "341.2911406612505",
        "mean_motion" : ".8310194979528305",
        "equinox" : "J2000"
      }
    }, {
      "links" : {
        "self" : "https://api.nasa.gov/neo/rest/v1/neo/3441820?api_key=t0TVs3DtDT2H8Oy2Zy8m2eVrNsAVKAexjcZXUckd"
      },
      "neo_reference_id" : "3441820",
      "name" : "(2008 YF)",
      "nasa_jpl_url" : "http://ssd.jpl.nasa.gov/sbdb.cgi?sstr=3441820",
      "absolute_magnitude_h" : 20.9,
      "estimated_diameter" : {
        "kilometers" : {
          "estimated_diameter_min" : 0.1756123185,
          "estimated_diameter_max" : 0.3926810818
        },
        "meters" : {
          "estimated_diameter_min" : 175.6123184804,
          "estimated_diameter_max" : 392.6810818086
        },
        "miles" : {
          "estimated_diameter_min" : 0.1091204019,
          "estimated_diameter_max" : 0.2440006365
        },
        "feet" : {
          "estimated_diameter_min" : 576.1559189633,
          "estimated_diameter_max" : 1288.3238004408
        }
      },
      "is_potentially_hazardous_asteroid" : true,
      "close_approach_data" : [ {
        "close_approach_date" : "2008-12-15",
        "epoch_date_close_approach" : 1229328000000,
        "relative_velocity" : {
          "kilometers_per_second" : "14.4311159417",
          "kilometers_per_hour" : "51952.0173899425",
          "miles_per_hour" : "32280.9632498785"
        },
        "miss_distance" : {
          "astronomical" : "0.0470685738",
          "lunar" : "18.3096752167",
          "kilometers" : "7041358.5",
          "miles" : "4375297.5"
        },
        "orbiting_body" : "Earth"
      } ],
      "orbital_data" : {
        "orbit_id" : "15",
        "orbit_determination_date" : "2017-04-06 09:01:55",
        "orbit_uncertainty" : "7",
        "minimum_orbit_intersection" : ".00171125",
        "jupiter_tisserand_invariant" : "4.129",
        "epoch_osculation" : "2458000.5",
        "eccentricity" : ".4382777846919798",
        "semi_major_axis" : "1.627901152709886",
        "inclination" : "21.97204720169415",
        "ascending_node_longitude" : "86.98571711914246",
        "orbital_period" : "758.6482719200682",
        "perihelion_distance" : ".9144282418026766",
        "perihelion_argument" : "321.061220764448",
        "aphelion_distance" : "2.341374063617095",
        "perihelion_time" : "2457820.994020831819",
        "mean_anomaly" : "85.1806494424517",
        "mean_motion" : ".4745282014402715",
        "equinox" : "J2000"
      }
    } ]
  }
}